{
    "links": {
        "self": "http://www.neowsapp.com/rest/v1/neo/3694523?api_key=iIulBulltgU6a56xZRHN4H3l9WmuAYTsLGpBGhQ2"
    },
    "id": "3694523",
    "neo_reference_id": "3694523",
    "name": "(2014 UZ57)",
    "designation": "2014 UZ57",
    "nasa_jpl_url": "http://ssd.jpl.nasa.gov/sbdb.cgi?sstr=3694523",
    "absolute_magnitude_h": 24.9,
    "estimated_diameter": {
        "kilometers": {
            "estimated_diameter_min": 0.0278326768,
            "estimated_diameter_max": 0.0622357573
        },
        "meters": {
            "estimated_diameter_min": 27.8326768072,
            "estimated_diameter_max": 62.2357573367
        },
        "miles": {
            "estimated_diameter_min": 0.0172944182,
            "estimated_diameter_max": 0.0386714948
        },
        "feet": {
            "estimated_diameter_min": 91.3145593761,
            "estimated_diameter_max": 204.1855621004
        }
    },
    "is_potentially_hazardous_asteroid": false,
    "close_approach_data": [
        {
            "close_approach_date": "2014-11-04",
            "close_approach_date_full": "2014-Nov-04 10:43",
            "epoch_date_close_approach": 1415097780000,
            "relative_velocity": {
                "kilometers_per_second": "20.1543852554",
                "kilometers_per_hour": "72555.7869195469",
                "miles_per_hour": "45083.3443778707"
            },
            "miss_distance": {
                "astronomical": "0.0881296276",
                "lunar": "34.2824251364",
                "kilometers": "13184004.572853212",
                "miles": "8192160.5660378456"
            },
            "orbiting_body": "Earth"
        }
    ],
    "orbital_data": {
        "orbit_id": "3",
        "orbit_determination_date": "2017-04-06 08:37:52",
        "first_observation_date": "2014-10-25",
        "last_observation_date": "2014-10-27",
        "data_arc_in_days": 2,
        "observations_used": 19,
        "orbit_uncertainty": "9",
        "minimum_orbit_intersection": ".084857",
        "jupiter_tisserand_invariant": "3.696",
        "epoch_osculation": "2456956.5",
        "eccentricity": ".5906875641709914",
        "semi_major_axis": "1.831666004639623",
        "inclination": "26.67361182897664",
        "ascending_node_longitude": "33.48913920234155",
        "orbital_period": "905.4570498457841",
        "perihelion_distance": ".7497236739842323",
        "perihelion_argument": "84.50213268136521",
        "aphelion_distance": "2.913608335295014",
        "perihelion_time": "2457017.108337617914",
        "mean_anomaly": "335.9027757902319",
        "mean_motion": ".3975892617560541",
        "equinox": "J2000",
        "orbit_class": {
            "orbit_class_type": "APO",
            "orbit_class_description": "Near-Earth asteroid orbits which cross the Earth’s orbit similar to that of 1862 Apollo",
            "orbit_class_range": "a (semi-major axis) > 1.0 AU; q (perihelion) < 1.017 AU"
        }
    },
    "is_sentry_object": false
}